{
  "norad_id": 57129,
  "name": "STARLINK-6170",
  "history": [
    {
      "epoch": "2026-03-28T22:00:01.999584",
      "apogee_km": 487.10266351010614,
      "perigee_km": 484.02003930652154,
      "latitude_deg": 2.0812041118445066,
      "longitude_deg": -19.09777824021876,
      "semi_major_axis_km": 6863.698351408314,
      "eccentricity": 0.00022456,
      "inclination_deg": 43.0006,
      "raan_deg": 155.011,
      "arg_perigee_deg": 278.2216,
      "mean_anomaly_deg": 346.0566,
      "mean_motion_rev_day": 15.26741388
    },
    {
      "epoch": "2026-03-29T00:00:01.999296",
      "apogee_km": 487.12942266381106,
      "perigee_km": 484.1025076061869,
      "latitude_deg": -41.25525902602026,
      "longitude_deg": -11.097778560128063,
      "semi_major_axis_km": 6863.752965134999,
      "eccentricity": 0.0002205,
      "inclination_deg": 43.0005,
      "raan_deg": 154.5409,
      "arg_perigee_deg": 264.2076,
      "mean_anomaly_deg": 98.6377,
      "mean_motion_rev_day": 15.26723166
    }
  ]
}